[
    {
        "Altitude(m)": 624790.8302686036,
        "Argument of Periapsis(deg)": 0.0,
        "Eccentricity": 0.0,
        "Inclination(deg)": 60.0,
        "Latitude(deg)": -59.14722232567677,
        "Longitude(deg)": -123.96549516812178,
        "Mean Anomaly(deg)": 278.1818,
        "RAAN(deg)": 50.0,
        "Satellite Name": "Test1 237",
        "Satellite Number": 237,
        "Semi-Major Axis(m)": 6980739.136638005,
        "Time(s)": 0
    },
    {
        "Altitude(m)": 624737.48582313,
        "Argument of Periapsis(deg)": 0.00010418945913296404,
        "Eccentricity": 0.0,
        "Inclination(deg)": 60.0,
        "Latitude(deg)": -58.9946786364695,
        "Longitude(deg)": -122.84598904591563,
        "Mean Anomaly(deg)": 278.8019061454618,
        "RAAN(deg)": 49.99957995086026,
        "Satellite Name": "Test1 237",
        "Satellite Number": 237,
        "Semi-Major Axis(m)": 6980739.136638005,
        "Time(s)": 10
    }
]